IRIDIUM 921 [-]         
1 24873U 97034E   24009.45974860  .00019044  00000+0  65794-3 0  9996
2 24873  86.3847   6.5318 0007547 117.8535 242.3479 15.29789563450698
IRIDIUM 26 [-]          
1 24903U 97043A   24009.43869882  .00000576  00000+0  19090-3 0  9993
2 24903  86.3974 330.7983 0002373  84.3937 275.7530 14.36149272381403
IRIDIUM 22 [-]          
1 24907U 97043E   24009.44106027  .00000540  00000+0  18273-3 0  9996
2 24907  86.3977 333.9067 0002241  88.4258 271.7195 14.35050325381494
DUMMY MASS 1 [-]        
1 24925U 97048A   24009.54395902  .00000566  00000+0  61662-4 0  9993
2 24925  86.3339  17.7244 0006173 184.7076 175.4091 14.85990637427430
IRIDIUM 29 [-]          
1 24944U 97051A   24009.49443891  .00000573  00000+0  19259-3 0  9995
2 24944  86.3961   3.8289 0002269  96.2810 263.8645 14.35508866377976
IRIDIUM 33 [-]          
1 24946U 97051C   24009.51422714  .00000406  00000+0  13778-3 0  9996
2 24946  86.3876   3.0863 0007885   6.5850 353.5448 14.34218624377528
IRIDIUM 28 [-]          
1 24948U 97051E   24009.53405467  .00000576  00000+0  18997-3 0  9992
2 24948  86.3968   1.6300 0002333  79.3848 280.7612 14.36448566378505
